CCSDS_OEM_VERS = 2.0

COMMENT Orbit data are consistent with planetary ephemeris DE-430

CREATION_DATE  = 2020-06-01T00:32:46
ORIGINATOR     = Test

META_START
OBJECT_NAME          = TEST_OBJ
OBJECT_ID            = 0000-000A
CENTER_NAME          = Earth
REF_FRAME            = ICRF
TIME_SYSTEM          = UTC
START_TIME           = 2020-06-01T12:00:00.000000
USEABLE_START_TIME   = 2020-06-01T12:00:00.000000
USEABLE_STOP_TIME    = 2020-06-01T13:00:00.000000
STOP_TIME            = 2020-06-01T13:00:00.000000
INTERPOLATION        = Lagrange
INTERPOLATION_DEGREE = 5
META_STOP

COMMENT Vehicle's position at any requested time was actually computed using an algorithm, not an interpolation of a table of ephemeris.

2020-06-01T12:00:00.000000  -4.706641952872011e+03  -2.918623186846944e+03   3.932995817738559e+03   6.077667602389965e-01  -6.470290930680426e+00  -4.059846290755485e+00
2020-06-01T12:01:00.000000  -4.659443185713036e+03  -3.299871874607716e+03   3.680574084331019e+03   9.649363656794152e-01  -6.233151071975111e+00  -4.351015833932221e+00
2020-06-01T12:02:00.000000  -4.590937743703589e+03  -3.666030848199918e+03   3.411273695970938e+03   1.317718313079672e+00  -5.967490649721602e+00  -4.622251514385893e+00
2020-06-01T12:03:00.000000  -4.501437520299353e+03  -4.015424632192055e+03   3.126328630755376e+03   1.664495110994896e+00  -5.674523620152898e+00  -4.872304065636105e+00
2020-06-01T12:04:00.000000  -4.391350712914063e+03  -4.346454428252259e+03   2.827044951025376e+03   2.003675449933014e+00  -5.355590981548576e+00  -5.100021016184278e+00
2020-06-01T12:05:00.000000  -4.261180024760059e+03  -4.657605564525496e+03   2.514794820757997e+03   2.333701769241239e+00  -5.012154864846412e+00  -5.304352426848490e+00
2020-06-01T12:06:00.000000  -4.111520414974665e+03  -4.947454570140411e+03   2.191010192057483e+03   2.653057733591196e+00  -4.645791955354252e+00  -5.484356172048911e+00
2020-06-01T12:07:00.000000  -3.943056403929655e+03  -5.214675835259544e+03   1.857176189589868e+03   2.960275569817110e+00  -4.258186266439768e+00  -5.639202718569954e+00
2020-06-01T12:08:00.000000  -3.756558943650791e+03  -5.458047818612074e+03   1.514824224527295e+03   3.253943213016518e+00  -3.851121294492612e+00  -5.768179357608159e+00
2020-06-01T12:09:00.000000  -3.552881866379751e+03  -5.676458766482464e+03   1.165524872111659e+03   3.532711209956728e+00  -3.426471592955968e+00  -5.870693849372763e+00
2020-06-01T12:10:00.000000  -3.332957927435792e+03  -5.868911909663564e+03   8.108805492439675e+02   3.795299328018322e+00  -2.986193811536257e+00  -5.946277444086439e+00
2020-06-01T12:11:00.000000  -3.097794461618007e+03  -6.034530107895638e+03   4.525180305009459e+02   4.040502819190501e+00  -2.532317254551086e+00  -5.994587248840671e+00
2020-06-01T12:12:00.000000  -2.848468675345606e+03  -6.172559914785259e+03   9.208084258677776e+01   4.267198291036458e+00  -2.066934019462813e+00  -6.015407916261775e+00
2020-06-01T12:13:00.000000  -2.586122599523804e+03  -6.282375040047460e+03  -2.687784215469722e+02   4.474349139989921e+00  -1.592188782787100e+00  -6.008652638153038e+00
2020-06-01T12:14:00.000000  -2.311957730660193e+03  -6.363479190105604e+03  -6.284058269359435e+02   4.661010506787920e+00  -1.110268305483570e+00  -5.974363435008541e+00
2020-06-01T12:15:00.000000  -2.027229390010198e+03  -6.415508272515847e+03  -9.851538169070676e+02   4.826333719132898e+00  -6.233907335336787e-01  -5.912710740311715e+00
2020-06-01T12:16:00.000000  -1.733240832431826e+03  -6.438231954290142e+03  -1.337388887371482e+03   4.969570192695116e+00  -1.337947715019289e-01  -5.823992286608915e+00
2020-06-01T12:17:00.000000  -1.431337138154415e+03  -6.431554568874764e+03  -1.683499173671211e+03   5.090074768105321e+00   3.562711925445332e-01  -5.708631308246923e+00
2020-06-01T12:18:00.000000  -1.122898921799293e+03  -6.395515371207229e+03  -2.021901909674251e+03   5.187308468478284e+00   8.445599333649837e-01  -5.567174083153574e+00
2020-06-01T12:19:00.000000  -8.093358936792223e+02  -6.330288144842787e+03  -2.351050720355735e+03   5.260840669028995e+00   1.328836131225615e+00  -5.400286842906401e+00
2020-06-01T12:20:00.000000  -4.920803087137073e+02  -6.236180169513236e+03  -2.669442711023170e+03   5.310350677286273e+00   1.806886939899742e+00  -5.208752086391720e+00
2020-06-01T12:21:00.000000  -1.725803381536009e+02  -6.113630561587554e+03  -2.975625318616467e+03   5.335628729076237e+00   2.276532314128959e+00  -4.993464337432293e+00
2020-06-01T12:22:00.000000   1.477066011694171e+02  -5.963208003666860e+03  -3.268202893037103e+03   5.336576411639696e+00   2.735635036868834e+00  -4.755425390746203e+00
2020-06-01T12:23:00.000000   4.673205262228855e+02  -5.785607882919383e+03  -3.545842979198088e+03   5.313206530791273e+00   3.182110393701437e+00  -4.495739093402992e+00
2020-06-01T12:24:00.000000   7.848055430829457e+02  -5.581648860690777e+03  -3.807282273358132e+03   5.265642443786836e+00   3.613935449410613e+00  -4.215605710526740e+00
2020-06-01T12:25:00.000000   1.098716446893407e+03  -5.352268898392112e+03  -4.051332230234878e+03   5.194116883413769e+00   4.029157889652322e+00  -3.916315924369978e+00
2020-06-01T12:26:00.000000   1.407625236806060e+03  -5.098520766656085e+03  -4.276884300317698e+03   5.098970301687324e+00   4.425904398613230e+00  -3.599244515094341e+00
2020-06-01T12:27:00.000000   1.710127517985607e+03  -4.821567066274992e+03  -4.482914779644922e+03   4.980648763379894e+00   4.802388551266189e+00  -3.265843769748530e+00
2020-06-01T12:28:00.000000   2.004848764601063e+03  -4.522674790497835e+03  -4.668489257030777e+03   4.839701420432711e+00   5.156918206058862e+00  -2.917636663142094e+00
2020-06-01T12:29:00.000000   2.290450419574031e+03  -4.203209458924883e+03  -4.832766646249066e+03   4.676777598139714e+00   5.487902390351224e+00  -2.556209850767314e+00
2020-06-01T12:30:00.000000   2.565635808673565e+03  -3.864628853531392e+03  -4.975002792979055e+03   4.492623522926750e+00   5.793857676475082e+00  -2.183206509794570e+00
2020-06-01T12:31:00.000000   2.829155848282239e+03  -3.508476387338805e+03  -5.094553648360661e+03   4.288078719684948e+00   6.073414050760542e+00  -1.800319059670456e+00
2020-06-01T12:32:00.000000   3.079814527751713e+03  -3.136374136016695e+03  -5.190878002766612e+03   4.064072104106535e+00   6.325320281135294e+00  -1.409281789220997e+00
2020-06-01T12:33:00.000000   3.316474148723855e+03  -2.750015562268630e+03  -5.263539774892608e+03   3.821617792445485e+00   6.548448790937734e+00  -1.011863412577687e+00
2020-06-01T12:34:00.000000   3.538060305001811e+03  -2.351157962425601e+03  -5.312209852468048e+03   3.561810647843728e+00   6.741800047297629e+00  -6.098595720405952e-01
2020-06-01T12:35:00.000000   3.743566587674656e+03  -1.941614664063416e+03  -5.336667481885920e+03   3.285821578856128e+00   6.904506472050418e+00  -2.050853021071470e-01
2020-06-01T12:36:00.000000   3.932059000929745e+03  -1.523247003221356e+03  -5.336801204782496e+03   2.994892602569557e+00   7.035835881480806e+00   2.006325340098869e-01
2020-06-01T12:37:00.000000   4.102680074809024e+03  -1.097956109171241e+03  -5.312609340226524e+03   2.690331681401214e+00   7.135194458804668e+00   6.054628266632147e-01
2020-06-01T12:38:00.000000   4.254652661444238e+03  -6.676745249268693e+02  -5.264200011625278e+03   2.373507340244447e+00   7.202129259823341e+00   1.007577813140461e+00
2020-06-01T12:39:00.000000   4.387283401798926e+03  -2.343576914651039e+02  -5.191790717908803e+03   2.045843068353467e+00   7.236330248452770e+00   1.405160675101459e+00
2020-06-01T12:40:00.000000   4.499965850095249e+03   2.000246758961993e+02  -5.095707448972627e+03   1.708811509105037e+00   7.237631854587565e+00   1.796413132301602e+00
2020-06-01T12:41:00.000000   4.592183243294920e+03   6.334972899702043e+02  -4.976383345865313e+03   1.363928440220149e+00   7.206014042552876e+00   2.179563023252826e+00
2020-06-01T12:42:00.000000   4.663510903168702e+03   1.064088043209156e+03  -4.834356906831363e+03   1.012746547368618e+00   7.141602874385854e+00   2.552871860963853e+00
2020-06-01T12:43:00.000000   4.713618258694881e+03   1.489836777366792e+03  -4.670269741126303e+03   6.568489953413115e-01   7.044670548646428e+00   2.914642348565686e+00
2020-06-01T12:44:00.000000   4.742270476839195e+03   1.908804039189256e+03  -4.484863873547670e+03   2.978428031173789e-01   6.915634892628834e+00   3.263225835644919e+00
2020-06-01T12:45:00.000000   4.749329690229858e+03   2.319079788615893e+03  -4.278978603912456e+03  -6.264796786431921e-02   6.755058283942463e+00   3.597029691629365e+00
2020-06-01T12:46:00.000000   4.734755810905543e+03   2.718792024499247e+03  -4.053546927277731e+03  -4.229891991903829e-01   6.563645976630074e+00   3.914524567814169e+00
2020-06-01T12:47:00.000000   4.698606920217237e+03   3.106115291373885e+03  -3.809591522559372e+03  -7.815438573325398e-01   6.342243807430827e+00   4.214251514792180e+00
2020-06-01T12:48:00.000000   4.641039226147772e+03   3.479279029387778e+03  -3.548220319345950e+03  -1.136679269683532e+00   6.091835259556862e+00   4.494828917396393e+00
2020-06-01T12:49:00.000000   4.562306580788476e+03   3.836575728246014e+03  -3.270621655118958e+03  -1.486774507480503e+00   5.813537864473497e+00   4.754959204989835e+00
2020-06-01T12:50:00.000000   4.462759552501184e+03   4.176368844982093e+03  -2.978059037735847e+03  -1.830227843144018e+00   5.508598926623995e+00   4.993435291279961e+00
2020-06-01T12:51:00.000000   4.342844049394340e+03   4.497100444629113e+03  -2.671865530883762e+03  -2.165464244483475e+00   5.178390561762556e+00   5.209146694966769e+00
2020-06-01T12:52:00.000000   4.203099493128081e+03   4.797298522528466e+03  -2.353437783184956e+03  -2.490942863497316e+00   4.824404046390482e+00   5.401085290659020e+00
2020-06-01T12:53:00.000000   4.044156544736724e+03   5.075583967078694e+03  -2.024229724702456e+03  -2.805164473256038e+00   4.448243483598405e+00   5.568350638710597e+00
2020-06-01T12:54:00.000000   3.866734387047597e+03   5.330677122313545e+03  -1.685745957657766e+03  -3.106678802859946e+00   4.051618799142188e+00   5.710154843067405e+00
2020-06-01T12:55:00.000000   3.671637571364472e+03   5.561403910790108e+03  -1.339534871172522e+03  -3.394091717815217e+00   3.636338090597242e+00   5.825826887910302e+00
2020-06-01T12:56:00.000000   3.459752439293260e+03   5.766701478914732e+03  -9.871815127067343e+02  -3.666072191537265e+00   3.204299361656654e+00   5.914816406843454e+00
2020-06-01T12:57:00.000000   3.232043133874393e+03   5.945623329023108e+03  -6.303002515041467e+02  -3.921359013149455e+00   2.757481682777136e+00   5.976696842572099e+00
2020-06-01T12:58:00.000000   2.989547217459140e+03   6.097343905261350e+03  -2.705272717212196e+02  -4.158767177367629e+00   2.297935828145501e+00   6.011167960346532e+00
2020-06-01T12:59:00.000000   2.733370916977559e+03   6.221162603547502e+03   9.048706508703376e+01  -4.377193904059689e+00   1.827774447038234e+00   6.018057684800198e+00
2020-06-01T13:00:00.000000   2.464684020305504e+03   6.316507179585064e+03   4.510859468329136e+02  -4.575624238012422e+00   1.349161834842474e+00   5.997323237000519e+00
